{
  "norad_id": 51117,
  "name": "STARLINK-3391",
  "history": [
    {
      "epoch": "2026-03-28T19:09:28.661760",
      "apogee_km": 540.4399191063021,
      "perigee_km": 539.0167758470188,
      "latitude_deg": 41.62502183849027,
      "longitude_deg": 88.33184640016407,
      "semi_major_axis_km": 6917.865347476661,
      "eccentricity": 0.00010286,
      "inclination_deg": 53.2186,
      "raan_deg": 203.2255,
      "arg_perigee_deg": 89.7507,
      "mean_anomaly_deg": 270.3603,
      "mean_motion_rev_day": 15.08844921
    }
  ]
}